CCSDS_OMM_VERS = 2.0
CREATION_DATE  = 
ORIGINATOR     = 

OBJECT_NAME    = STARLINK-36570
OBJECT_ID      = 2026-020Z
CENTER_NAME    = EARTH
REF_FRAME      = TEME
TIME_SYSTEM    = UTC
MEAN_ELEMENT_THEORY = SGP/SGP4

EPOCH          = 2026-02-17T15:15:38.339424
MEAN_MOTION    = 15.76579799
ECCENTRICITY   = .00024919
INCLINATION    = 42.9967
RA_OF_ASC_NODE = 263.8200
ARG_OF_PERICENTER = 270.1840
MEAN_ANOMALY   = 89.8744

EPHEMERIS_TYPE = 0
CLASSIFICATION_TYPE = U
NORAD_CAT_ID   = 67640
ELEMENT_SET_NO = 999
REV_AT_EPOCH   = 292
BSTAR          = .26442812E-2
MEAN_MOTION_DOT = .458538E-2
MEAN_MOTION_DDOT = 0

CCSDS_OMM_VERS = 2.0
CREATION_DATE  = 
ORIGINATOR     = 

OBJECT_NAME    = STARLINK-36514
OBJECT_ID      = 2026-020AA
CENTER_NAME    = EARTH
REF_FRAME      = TEME
TIME_SYSTEM    = UTC
MEAN_ELEMENT_THEORY = SGP/SGP4

EPOCH          = 2026-02-16T23:35:53.162016
MEAN_MOTION    = 15.82095372
ECCENTRICITY   = .0001841
INCLINATION    = 42.9960
RA_OF_ASC_NODE = 267.5163
ARG_OF_PERICENTER = 261.8111
MEAN_ANOMALY   = 98.2552

EPHEMERIS_TYPE = 0
CLASSIFICATION_TYPE = U
NORAD_CAT_ID   = 67641
ELEMENT_SET_NO = 999
REV_AT_EPOCH   = 282
BSTAR          = .49143275E-3
MEAN_MOTION_DOT = .104594E-2
MEAN_MOTION_DDOT = 0

CCSDS_OMM_VERS = 2.0
CREATION_DATE  = 
ORIGINATOR     = 

OBJECT_NAME    = STARLINK-36556
OBJECT_ID      = 2026-020AB
CENTER_NAME    = EARTH
REF_FRAME      = TEME
TIME_SYSTEM    = UTC
MEAN_ELEMENT_THEORY = SGP/SGP4

EPOCH          = 2026-02-17T14:00:01.999872
MEAN_MOTION    = 15.76293770
ECCENTRICITY   = .0001774
INCLINATION    = 42.9980
RA_OF_ASC_NODE = 263.9823
ARG_OF_PERICENTER = 269.9306
MEAN_ANOMALY   = 214.0272

EPHEMERIS_TYPE = 0
CLASSIFICATION_TYPE = U
NORAD_CAT_ID   = 67642
ELEMENT_SET_NO = 999
REV_AT_EPOCH   = 415
BSTAR          = .64072941E-3
MEAN_MOTION_DOT = .104811E-2
MEAN_MOTION_DDOT = 0

CCSDS_OMM_VERS = 2.0
CREATION_DATE  = 
ORIGINATOR     = 

OBJECT_NAME    = STARLINK-36533
OBJECT_ID      = 2026-020AC
CENTER_NAME    = EARTH
REF_FRAME      = TEME
TIME_SYSTEM    = UTC
MEAN_ELEMENT_THEORY = SGP/SGP4

EPOCH          = 2026-02-17T00:06:23.806944
MEAN_MOTION    = 15.76444774
ECCENTRICITY   = .00025874
INCLINATION    = 42.9967
RA_OF_ASC_NODE = 267.6878
ARG_OF_PERICENTER = 274.6350
MEAN_ANOMALY   = 85.4224

EPHEMERIS_TYPE = 0
CLASSIFICATION_TYPE = U
NORAD_CAT_ID   = 67643
ELEMENT_SET_NO = 999
REV_AT_EPOCH   = 282
BSTAR          = .34806858E-3
MEAN_MOTION_DOT = .56776E-3
MEAN_MOTION_DDOT = 0

CCSDS_OMM_VERS = 2.0
CREATION_DATE  = 
ORIGINATOR     = 

OBJECT_NAME    = STARLINK-36623
OBJECT_ID      = 2026-020AD
CENTER_NAME    = EARTH
REF_FRAME      = TEME
TIME_SYSTEM    = UTC
MEAN_ELEMENT_THEORY = SGP/SGP4

EPOCH          = 2026-02-17T15:09:20.025792
MEAN_MOTION    = 15.76575875
ECCENTRICITY   = .00024559
INCLINATION    = 42.9970
RA_OF_ASC_NODE = 263.7816
ARG_OF_PERICENTER = 265.5632
MEAN_ANOMALY   = 94.4957

EPHEMERIS_TYPE = 0
CLASSIFICATION_TYPE = U
NORAD_CAT_ID   = 67644
ELEMENT_SET_NO = 999
REV_AT_EPOCH   = 292
BSTAR          = .26669403E-2
MEAN_MOTION_DOT = .462617E-2
MEAN_MOTION_DDOT = 0

CCSDS_OMM_VERS = 2.0
CREATION_DATE  = 
ORIGINATOR     = 

OBJECT_NAME    = STARLINK-36619
OBJECT_ID      = 2026-020AE
CENTER_NAME    = EARTH
REF_FRAME      = TEME
TIME_SYSTEM    = UTC
MEAN_ELEMENT_THEORY = SGP/SGP4

EPOCH          = 2026-02-17T15:06:10.846080
MEAN_MOTION    = 15.76515283
ECCENTRICITY   = .00043244
INCLINATION    = 42.9971
RA_OF_ASC_NODE = 263.7640
ARG_OF_PERICENTER = 290.9779
MEAN_ANOMALY   = 69.0628

EPHEMERIS_TYPE = 0
CLASSIFICATION_TYPE = U
NORAD_CAT_ID   = 67645
ELEMENT_SET_NO = 999
REV_AT_EPOCH   = 292
BSTAR          = .1874939E-2
MEAN_MOTION_DOT = .318757E-2
MEAN_MOTION_DDOT = 0

CCSDS_OMM_VERS = 2.0
CREATION_DATE  = 
ORIGINATOR     = 

OBJECT_NAME    = ALSAT-3B
OBJECT_ID      = 2026-021A
CENTER_NAME    = EARTH
REF_FRAME      = TEME
TIME_SYSTEM    = UTC
MEAN_ELEMENT_THEORY = SGP/SGP4

EPOCH          = 2026-02-17T14:47:57.574176
MEAN_MOTION    = 15.23635560
ECCENTRICITY   = .00122558
INCLINATION    = 97.4710
RA_OF_ASC_NODE = 123.0401
ARG_OF_PERICENTER = 199.8581
MEAN_ANOMALY   = 160.2181

EPHEMERIS_TYPE = 0
CLASSIFICATION_TYPE = U
NORAD_CAT_ID   = 67646
ELEMENT_SET_NO = 999
REV_AT_EPOCH   = 266
BSTAR          = .28909147E-3
MEAN_MOTION_DOT = .6869E-4
MEAN_MOTION_DDOT = 0

CCSDS_OMM_VERS = 2.0
CREATION_DATE  = 
ORIGINATOR     = 

OBJECT_NAME    = CZ-2C R/B
OBJECT_ID      = 2026-021B
CENTER_NAME    = EARTH
REF_FRAME      = TEME
TIME_SYSTEM    = UTC
MEAN_ELEMENT_THEORY = SGP/SGP4

EPOCH          = 2026-02-17T14:52:30.688896
MEAN_MOTION    = 15.23534941
ECCENTRICITY   = .01533963
INCLINATION    = 97.6551
RA_OF_ASC_NODE = 123.6850
ARG_OF_PERICENTER = 81.0102
MEAN_ANOMALY   = 280.8460

EPHEMERIS_TYPE = 0
CLASSIFICATION_TYPE = U
NORAD_CAT_ID   = 67647
ELEMENT_SET_NO = 999
REV_AT_EPOCH   = 264
BSTAR          = .37601511E-3
MEAN_MOTION_DOT = .12458E-3
MEAN_MOTION_DDOT = 0

CCSDS_OMM_VERS = 2.0
CREATION_DATE  = 
ORIGINATOR     = 

OBJECT_NAME    = STARLINK-36719
OBJECT_ID      = 2026-022A
CENTER_NAME    = EARTH
REF_FRAME      = TEME
TIME_SYSTEM    = UTC
MEAN_ELEMENT_THEORY = SGP/SGP4

EPOCH          = 2026-02-17T14:00:01.999872
MEAN_MOTION    = 15.75189224
ECCENTRICITY   = .0001286
INCLINATION    = 97.2838
RA_OF_ASC_NODE = 81.5566
ARG_OF_PERICENTER = 94.8636
MEAN_ANOMALY   = 239.1765

EPHEMERIS_TYPE = 0
CLASSIFICATION_TYPE = U
NORAD_CAT_ID   = 67648
ELEMENT_SET_NO = 999
REV_AT_EPOCH   = 366
BSTAR          = -.27375205E-4
MEAN_MOTION_DOT = -.4211E-4
MEAN_MOTION_DDOT = 0

CCSDS_OMM_VERS = 2.0
CREATION_DATE  = 
ORIGINATOR     = 

OBJECT_NAME    = STARLINK-36342
OBJECT_ID      = 2026-022B
CENTER_NAME    = EARTH
REF_FRAME      = TEME
TIME_SYSTEM    = UTC
MEAN_ELEMENT_THEORY = SGP/SGP4

EPOCH          = 2026-02-17T14:00:01.999872
MEAN_MOTION    = 15.75167606
ECCENTRICITY   = .00012718
INCLINATION    = 97.2840
RA_OF_ASC_NODE = 81.5573
ARG_OF_PERICENTER = 105.0474
MEAN_ANOMALY   = 232.9942

EPHEMERIS_TYPE = 0
CLASSIFICATION_TYPE = U
NORAD_CAT_ID   = 67649
ELEMENT_SET_NO = 999
REV_AT_EPOCH   = 366
BSTAR          = .98582465E-4
MEAN_MOTION_DOT = .14585E-3
MEAN_MOTION_DDOT = 0

CCSDS_OMM_VERS = 2.0
CREATION_DATE  = 
ORIGINATOR     = 

OBJECT_NAME    = STARLINK-36703
OBJECT_ID      = 2026-022C
CENTER_NAME    = EARTH
REF_FRAME      = TEME
TIME_SYSTEM    = UTC
MEAN_ELEMENT_THEORY = SGP/SGP4

EPOCH          = 2026-02-17T14:00:01.999872
MEAN_MOTION    = 15.75193795
ECCENTRICITY   = .00013902
INCLINATION    = 97.2841
RA_OF_ASC_NODE = 81.5609
ARG_OF_PERICENTER = 114.4352
MEAN_ANOMALY   = 229.6065

EPHEMERIS_TYPE = 0
CLASSIFICATION_TYPE = U
NORAD_CAT_ID   = 67650
ELEMENT_SET_NO = 999
REV_AT_EPOCH   = 366
BSTAR          = -.14627363E-3
MEAN_MOTION_DOT = -.21895E-3
MEAN_MOTION_DDOT = 0

CCSDS_OMM_VERS = 2.0
CREATION_DATE  = 
ORIGINATOR     = 

OBJECT_NAME    = STARLINK-36696
OBJECT_ID      = 2026-022D
CENTER_NAME    = EARTH
REF_FRAME      = TEME
TIME_SYSTEM    = UTC
MEAN_ELEMENT_THEORY = SGP/SGP4

EPOCH          = 2026-02-17T14:00:01.999872
MEAN_MOTION    = 15.75175882
ECCENTRICITY   = .00014109
INCLINATION    = 97.2842
RA_OF_ASC_NODE = 81.5642
ARG_OF_PERICENTER = 70.2500
MEAN_ANOMALY   = 283.7855

EPHEMERIS_TYPE = 0
CLASSIFICATION_TYPE = U
NORAD_CAT_ID   = 67651
ELEMENT_SET_NO = 999
REV_AT_EPOCH   = 366
BSTAR          = .10150868E-3
MEAN_MOTION_DOT = .15028E-3
MEAN_MOTION_DDOT = 0

