STARLINK-36570          
1 67640U 26020Z   26048.63586041  .00458538  00000+0  26443-2 0  9999
2 67640  42.9967 263.8200 0002491 270.1840  89.8744 15.76579799  2929
STARLINK-36514          
1 67641U 26020AA  26047.98325419  .00104594  00000+0  49143-3 0  9990
2 67641  42.9960 267.5163 0001841 261.8111  98.2552 15.82095372  2825
STARLINK-36556          
1 67642U 26020AB  26048.58335648  .00104811  00000+0  64073-3 0  9994
2 67642  42.9980 263.9823 0001774 269.9306 214.0272 15.76293770  4151
STARLINK-36533          
1 67643U 26020AC  26048.00444221  .00056776  00000+0  34807-3 0  9998
2 67643  42.9967 267.6878 0002587 274.6350  85.4224 15.76444774  2824
STARLINK-36623          
1 67644U 26020AD  26048.63148178  .00462617  00000+0  26669-2 0  9991
2 67644  42.9970 263.7816 0002455 265.5632  94.4957 15.76575875  2925
STARLINK-36619          
1 67645U 26020AE  26048.62929220  .00318757  00000+0  18749-2 0  9991
2 67645  42.9971 263.7640 0004324 290.9779  69.0628 15.76515283  2923
ALSAT-3B                
1 67646U 26021A   26048.61663859  .00006869  00000+0  28909-3 0  9993
2 67646  97.4710 123.0401 0012255 199.8581 160.2181 15.23635560  2665
CZ-2C R/B               
1 67647U 26021B   26048.61979964  .00012458  00000+0  37602-3 0  9992
2 67647  97.6551 123.6850 0153396  81.0102 280.8460 15.23534941  2646
STARLINK-36719          
1 67648U 26022A   26048.58335648 -.00004211  00000+0 -27375-4 0  9992
2 67648  97.2838  81.5566 0001286  94.8636 239.1765 15.75189224  3666
STARLINK-36342          
1 67649U 26022B   26048.58335648  .00014585  00000+0  98582-4 0  9994
2 67649  97.2840  81.5573 0001271 105.0474 232.9942 15.75167606  3665
STARLINK-36703          
1 67650U 26022C   26048.58335648 -.00021895  00000+0 -14627-3 0  9997
2 67650  97.2841  81.5609 0001390 114.4352 229.6065 15.75193795  3666
STARLINK-36696          
1 67651U 26022D   26048.58335648  .00015028  00000+0  10151-3 0  9995
2 67651  97.2842  81.5642 0001410  70.2500 283.7855 15.75175882  3667
